#aV2010  1 23  0  0   .00000000      96 DD+AD WGS84 FIT  NGA
## 1567 518400.00000000   900.00000000 55219  .0000000000000
+   32     1  2  3  4  5  6  7  8  9 10 11 12 13 14 15 16 17
+         18 19 20 21 22 23 24 25 26 27 28 29 30 31 32  0  0
+          0  0  0  0  0  0  0  0  0  0  0  0  0  0  0  0  0
+          0  0  0  0  0  0  0  0  0  0  0  0  0  0  0  0  0
+          0  0  0  0  0  0  0  0  0  0  0  0  0  0  0  0  0
++         0  0  0  0  0  0  0  0  0  0  0  0  0  0  0  0  0
++         0  0  0  0  0  0  0  0  0  0  0  0  0  0  0  0  0
++         0  0  0  0  0  0  0  0  0  0  0  0  0  0  0  0  0
++         0  0  0  0  0  0  0  0  0  0  0  0  0  0  0  0  0
++         0  0  0  0  0  0  0  0  0  0  0  0  0  0  0  0  0
%c cc cc ccc ccc cccc cccc cccc cccc ccccc ccccc ccccc ccccc
%c cc cc ccc ccc cccc cccc cccc cccc ccccc ccccc ccccc ccccc
%f  0.0000000  0.000000000  0.00000000000  0.000000000000000
%f  0.0000000  0.000000000  0.00000000000  0.000000000000000
%i    0    0    0    0      0      0      0      0         0
%i    0    0    0    0      0      0      0      0         0
/*      NGA, ST. LOUIS,MO.                                  
/*   EPHEMERIS COMPUTED FROM  3 DAYS OF DATA                
/* CCCCCCCCCCCCCCCCCCCCCCCCCCCCCCCCCCCCCCCCCCCCCCCCCCCCCCCCC
/* CCCCCCCCCCCCCCCCCCCCCCCCCCCCCCCCCCCCCCCCCCCCCCCCCCCCCCCCC
*  2010  1 23 18 15   .00000000                                                 
P  1 -17885.182301 -19467.874300   3197.919624    -82.161334                    
V  1   -505.182531  -4887.912330 -31381.670516      -.033900                    
P  2  16724.233244 -13621.657295  15145.622234    218.780395                    
V  2  19765.294231    -96.798682 -22264.234893       .042470                    
P  3  -9836.292676  24100.385867   3893.541620    506.026603                    
V  3  -2518.216147  -6369.535406  30678.189520       .052061                    
P  4  25727.010755  -6142.401123   3876.988735   -472.422553                    
V  4   5449.169447   2484.988249 -30520.627274      -.192907                    
P  5   4457.073057 -17002.304813  19867.522618    -13.924834                    
V  5  16397.050078  19302.362555  12910.212483       .034295                    
P  6 -13514.052818  21650.873735   7315.748635    257.766569                    
V  6   -205.544768  -9764.616229  29347.156714      -.033397                    
P  7  20380.995903   7878.356806  15201.617455      3.895608                    
V  7 -18855.139916   4163.330037  22958.334236      -.005396                    
P  8  26511.873004   1013.430716   4082.351393      2.476534                    
V  8  -5021.683849   1695.300951  31525.084724       .004695                    
P  9  -1334.558389 -15091.691955 -22476.820987    101.747976                    
V  9  26566.584811  -4200.907314   1323.758176       .023337                    
P 10   9966.756709 -11931.918790  21319.701417    -33.605214                    
V 10  16732.076828  21903.612927   4742.797270      -.009643                    
P 11   7056.035871  15364.262286 -20749.102082    -41.324733                    
V 11 -24449.721879   9178.938120  -1166.524664      -.021024                    
P 12 -10110.777296 -23108.972710  -8484.978106   -159.302608                    
V 12   8290.477015   7280.011200 -29373.568337       .049011                    
P 13   9665.188020  12016.828548  21493.398851    306.658903                    
V 13 -12587.973742  24466.120700  -7982.852132      -.000167                    
P 14 -16948.484474   6098.708003 -19337.721987      3.478189                    
V 14   9569.867375 -22932.115884 -15624.240346       .044274                    
P 15   6434.616266 -25271.308132  -4711.289587   -311.647707                    
V 15   5038.011488  -4496.479492  30935.426881       .024027                    
P 16 -10501.039116  10949.431704  21831.130418    -33.707345                    
V 16 -16509.543516 -22113.263236   3408.717527      -.040682                    
P 17  17398.649731  -7457.002279 -18464.231576    123.681637                    
V 17  -8052.916250  22340.020223 -16741.785319       .032792                    
P 18 -19413.863855 -16220.088507  -8430.647887     43.928823                    
V 18  -4042.196768 -10635.016569  28525.047484       .026841                    
P 19  -7196.306188  24512.985797  -6658.320800    -11.313347                    
V 19  -6574.018461   6276.576783  30333.747544      -.022148                    
P 20  13393.381152  22425.426608  -5117.272188     62.742706                    
V 20  -6596.496334  -2810.148606 -30321.005436      -.007545                    
P 21 -23787.047190  -5734.633145  11370.685135    -35.903766                    
V 21  13436.593029  -4171.549700  26087.367498      -.024420                    
P 22 -19277.446210  -4744.151108 -17520.374914    180.877139                    
V 22 -11541.596969 -19551.181713  17753.195179      -.007876                    
P 23   2924.297699  20959.149542  15833.954939    381.676433                    
V 23  -9707.887163  17886.819938 -22140.404080      -.008588                    
P 24 -12536.549776 -13010.708416  19490.282402    256.274110                    
V 24  24458.133591  -3429.750737  13754.743494       .031558                    
P 25  14495.179626  10607.831384  19844.262786     85.338224                    
V 25 -23636.391834   6475.310548  14242.990683       .076277                    
P 26 -14577.160594  -3656.027972 -22478.670423    -12.054234                    
V 26  11956.270827 -24323.324525  -3442.794943      -.031646                    
P 27   2048.535799 -14925.368444 -21171.615504    119.737230                    
V 27  28122.453910  -4705.984235   5943.923788       .033984                    
P 28  19321.677084   8119.087724 -16032.835779    -23.218629                    
V 28  10889.489375  18133.097185  21386.597972       .005495                    
P 29  -8192.913171 -15702.720395  19895.386781     92.269179                    
V 29  11305.677903 -22385.816248 -13037.208090       .031625                    
P 30 -17214.767512 -20256.522349    283.440711    213.198870                    
V 30   1750.339219  -2535.028103 -31583.400882       .032852                    
P 31 -24646.337123   7775.081205   6701.740265    -54.274849                    
V 31  -8372.512216  -1010.436129 -30458.387319       .015090                    
P 32   5030.111456  23233.437370 -11808.571674    110.713380                    
V 32 -10187.040279 -11817.345636 -26462.764239      -.080928                    
EOF
